$$SOE
2460721.500000000, A.D. 2025-Feb-15 00:00:00.0000, -3.471275474451308E+07, -3.754052653566797E+08, -1.859981145606077E+07,
2460728.500000000, A.D. 2025-Feb-22 00:00:00.0000, -2.417594025806016E+07, -3.754851826607316E+08, -1.917192344864395E+07,
2460735.500000000, A.D. 2025-Mar-01 00:00:00.0000, -1.361718632001618E+07, -3.752243138219951E+08, -1.972663125271679E+07,
2460742.500000000, A.D. 2025-Mar-08 00:00:00.0000, -3.046000039676714E+06, -3.746208215197469E+08, -2.026332258117130E+07,
2460749.500000000, A.D. 2025-Mar-15 00:00:00.0000, 7.527985560285776E+06, -3.736730389593369E+08, -2.078138769627260E+07,
2460756.500000000, A.D. 2025-Mar-22 00:00:00.0000, 1.809500564708995E+07, -3.723794754854589E+08, -2.128021929712608E+07,
2460763.500000000, A.D. 2025-Mar-29 00:00:00.0000, 2.864515913653149E+07, -3.707388250246170E+08, -2.175921275191379E+07,
2460770.500000000, A.D. 2025-Apr-05 00:00:00.0000, 3.916840606123613E+07, -3.687499742407996E+08, -2.221776645132664E+07,
2460777.500000000, A.D. 2025-Apr-12 00:00:00.0000, 4.965456485320073E+07, -3.664120103227851E+08, -2.265528210118735E+07,
2460784.500000000, A.D. 2025-Apr-19 00:00:00.0000, 6.009330938713787E+07, -3.637242293063337E+08, -2.307116501241283E+07,
2460791.500000000, A.D. 2025-Apr-26 00:00:00.0000, 7.047416609330609E+07, -3.606861451564243E+08, -2.346482443331300E+07,
2460798.500000000, A.D. 2025-May-03 00:00:00.0000, 8.078651129385659E+07, -3.572974996124295E+08, -2.383567393676175E+07,
2460805.500000000, A.D. 2025-May-10 00:00:00.0000, 9.101956883561391E+07, -3.535582728091637E+08, -2.418313186805569E+07,
2460812.500000000, A.D. 2025-May-17 00:00:00.0000, 1.011624081048941E+08, -3.494686947366786E+08, -2.450662186431591E+07,
2460819.500000000, A.D. 2025-May-24 00:00:00.0000, 1.112039426506382E+08, -3.450292576157384E+08, -2.480557346997683E+07,
2460826.500000000, A.D. 2025-May-31 00:00:00.0000, 1.211329298883269E+08, -3.402407288984570E+08, -2.507942286511458E+07,
2460833.500000000, A.D. 2025-Jun-07 00:00:00.0000, 1.309379715426886E+08, -3.351041637041762E+08, -2.532761357497139E+07,
2460840.500000000, A.D. 2025-Jun-14 00:00:00.0000, 1.406075125319161E+08, -3.296209173661450E+08, -2.554959700214955E+07,
2460847.500000000, A.D. 2025-Jun-21 00:00:00.0000, 1.501298395888533E+08, -3.237926613672007E+08, -2.574483316525581E+07,
2460854.500000000, A.D. 2025-Jun-28 00:00:00.0000, 1.594930828358823E+08, -3.176214009118730E+08, -2.591279179269671E+07,
2460861.500000000, A.D. 2025-Jul-05 00:00:00.0000, 1.686852188888814E+08, -3.111094919942042E+08, -2.605295346263099E+07,
2460868.500000000, A.D. 2025-Jul-12 00:00:00.0000, 1.776940743925920E+08, -3.042596587772247E+08, -2.616481075153570E+07,
2460875.500000000, A.D. 2025-Jul-19 00:00:00.0000, 1.865073302741793E+08, -2.970750118598863E+08, -2.624786946097088E+07,
2460882.500000000, A.D. 2025-Jul-26 00:00:00.0000, 1.951125270286916E+08, -2.895590674782304E+08, -2.630164995103814E+07,
2460889.500000000, A.D. 2025-Aug-02 00:00:00.0000, 2.034970712133091E+08, -2.817157675988131E+08, -2.632568858892712E+07,
2460896.500000000, A.D. 2025-Aug-09 00:00:00.0000, 2.116482432936195E+08, -2.735495008872899E+08, -2.631953931979227E+07,
2460903.500000000, A.D. 2025-Aug-16 00:00:00.0000, 2.195532070486927E+08, -2.650651245714919E+08, -2.628277537615946E+07,
2460910.500000000, A.D. 2025-Aug-23 00:00:00.0000, 2.271990209695988E+08, -2.562679871286878E+08, -2.621499115574975E+07,
2460917.500000000, A.D. 2025-Aug-30 00:00:00.0000, 2.345726521323978E+08, -2.471639510224694E+08, -2.611580424432901E+07,
2460924.500000000, A.D. 2025-Sep-06 00:00:00.0000, 2.416609912832732E+08, -2.377594144185866E+08, -2.598485737643734E+07,
2460931.500000000, A.D. 2025-Sep-13 00:00:00.0000, 2.484508676207334E+08, -2.280613342731099E+08, -2.582182038751628E+07,
2460938.500000000, A.D. 2025-Sep-20 00:00:00.0000, 2.549290667063989E+08, -2.180772523239104E+08, -2.562639259472154E+07,
2460945.500000000, A.D. 2025-Sep-27 00:00:00.0000, 2.610823527269841E+08, -2.078153207397853E+08, -2.539830545077984E+07,
2460952.500000000, A.D. 2025-Oct-04 00:00:00.0000, 2.668974932569798E+08, -1.972843267327897E+08, -2.513732524212004E+07,
2460959.500000000, A.D. 2025-Oct-11 00:00:00.0000, 2.723612863129823E+08, -1.864937168957546E+08, -2.484325587282231E+07,
2460966.500000000, A.D. 2025-Oct-18 00:00:00.0000, 2.774605901446657E+08, -1.754536213301305E+08, -2.451594177993508E+07,
2460973.500000000, A.D. 2025-Oct-25 00:00:00.0000, 2.821823560576938E+08, -1.641748773144473E+08, -2.415527098734375E+07,
2460980.500000000, A.D. 2025-Nov-01 00:00:00.0000, 2.865136644546903E+08, -1.526690522287531E+08, -2.376117829376016E+07,
2460987.500000000, A.D. 2025-Nov-08 00:00:00.0000, 2.904417642611603E+08, -1.409484654657350E+08, -2.333364859140887E+07,
2460994.500000000, A.D. 2025-Nov-15 00:00:00.0000, 2.939541159951752E+08, -1.290262090519615E+08, -2.287272032179072E+07,
2461001.500000000, A.D. 2025-Nov-22 00:00:00.0000, 2.970384389699478E+08, -1.169161663853105E+08, -2.237848907218794E+07,
2461008.500000000, A.D. 2025-Nov-29 00:00:00.0000, 2.996827625409438E+08, -1.046330275449790E+08, -2.185111118740296E+07,
2461015.500000000, A.D. 2025-Dec-06 00:00:00.0000, 3.018754791538190E+08, -9.219230087588750E+07, -2.129080717694767E+07,
2461022.500000000, A.D. 2025-Dec-13 00:00:00.0000, 3.036053996085877E+08, -7.961032375212558E+07, -2.069786520677202E+07,
2461029.500000000, A.D. 2025-Dec-20 00:00:00.0000, 3.048618139599572E+08, -6.690427099305329E+07, -2.007264488134576E+07,
2461036.500000000, A.D. 2025-Dec-27 00:00:00.0000, 3.056345568548980E+08, -5.409215781018303E+07, -1.941558097029720E+07,
2461043.500000000, A.D. 2026-Jan-03 00:00:00.0000, 3.059140756608484E+08, -4.119283735126555E+07, -1.872718695602856E+07,
2461050.500000000, A.D. 2026-Jan-10 00:00:00.0000, 3.056915012333347E+08, -2.822599295723867E+07, -1.800805842308139E+07,
2461057.500000000, A.D. 2026-Jan-17 00:00:00.0000, 3.049587212139482E+08, -1.521212465343684E+07, -1.725887626858037E+07,
2461064.500000000, A.D. 2026-Jan-24 00:00:00.0000, 3.037084555086440E+08, -2.172529285289733E+06, -1.648040968506415E+07,
2461071.500000000, A.D. 2026-Jan-31 00:00:00.0000, 3.019343334509477E+08, 1.087072624618388E+07, -1.567351886035845E+07,
2461078.500000000, A.D. 2026-Feb-07 00:00:00.0000, 2.996309720990158E+08, 2.389483911413605E+07, -1.483915734321190E+07,
2461085.500000000, A.D. 2026-Feb-14 00:00:00.0000, 2.967940552094174E+08, 3.687631251941045E+07, -1.397837403495105E+07,
2461092.500000000, A.D. 2026-Feb-21 00:00:00.0000, 2.934204124581351E+08, 4.979100645273541E+07, -1.309231472922894E+07,
2461099.500000000, A.D. 2026-Feb-28 00:00:00.0000, 2.895080969061446E+08, 6.261419875208190E+07, -1.218222293773154E+07,
2461106.500000000, A.D. 2026-Mar-07 00:00:00.0000, 2.850564576547278E+08, 7.532065473547956E+07, -1.124943990482120E+07,
2461113.500000000, A.D. 2026-Mar-14 00:00:00.0000, 2.800662093731833E+08, 8.788470317705554E+07, -1.029540419217443E+07,
2461120.500000000, A.D. 2026-Mar-21 00:00:00.0000, 2.745394993006850E+08, 1.002803215038012E+08, -9.321650699109077E+06,
2461127.500000000, A.D. 2026-Mar-28 00:00:00.0000, 2.684799685000619E+08, 1.124812310851195E+08, -8.329808794746712E+06,
2461134.500000000, A.D. 2026-Apr-04 00:00:00.0000, 2.618928055431471E+08, 1.244610013201456E+08, -7.321599538228244E+06,
2461141.500000000, A.D. 2026-Apr-11 00:00:00.0000, 2.547847916876816E+08, 1.361931616376290E+08, -6.298832003939196E+06,
2461148.500000000, A.D. 2026-Apr-18 00:00:00.0000, 2.471643365076005E+08, 1.476513206760067E+08, -5.263398700805344E+06,
2461155.500000000, A.D. 2026-Apr-25 00:00:00.0000, 2.390415028711222E+08, 1.588092917372054E+08, -4.217270076031283E+06,
2461162.500000000, A.D. 2026-May-02 00:00:00.0000, 2.304280202310726E+08, 1.696412233746983E+08, -3.162488111184806E+06,
2461169.500000000, A.D. 2026-May-09 00:00:00.0000, 2.213372854112978E+08, 1.801217337605184E+08, -2.101159046887621E+06,
2461176.500000000, A.D. 2026-May-16 00:00:00.0000, 2.117843504912444E+08, 1.902260475150341E+08, -1.035445296960384E+06,
2461183.500000000, A.D. 2026-May-23 00:00:00.0000, 2.017858972593774E+08, 1.999301344135745E+08, 3.244346991282701E+04,
2461190.500000000, A.D. 2026-May-30 00:00:00.0000, 1.913601957798019E+08, 2.092108485571900E+08, 1.100260223315105E+06,
2461197.500000000, A.D. 2026-Jun-06 00:00:00.0000, 1.805270466298855E+08, 2.180460629464886E+08, 2.165731110680297E+06,
2461204.500000000, A.D. 2026-Jun-13 00:00:00.0000, 1.693077106415632E+08, 2.264147978262778E+08, 3.226566214251712E+06,
2461211.500000000, A.D. 2026-Jun-20 00:00:00.0000, 1.577248260688876E+08, 2.342973438784994E+08, 4.280470686051160E+06,
2461218.500000000, A.D. 2026-Jun-27 00:00:00.0000, 1.458023121747072E+08, 2.416753781326792E+08, 5.325156253739551E+06,
2461225.500000000, A.D. 2026-Jul-04 00:00:00.0000, 1.335652602021101E+08, 2.485320701318406E+08, 6.358352889856920E+06,
2461232.500000000, A.D. 2026-Jul-11 00:00:00.0000, 1.210398132045082E+08, 2.548521766792108E+08, 7.377820460262790E+06,
2461239.500000000, A.D. 2026-Jul-18 00:00:00.0000, 1.082530362736538E+08, 2.606221238355036E+08, 8.381360193230227E+06,
2461246.500000000, A.D. 2026-Jul-25 00:00:00.0000, 9.523277882945319E+07, 2.658300750380616E+08, 9.366825816918522E+06,
2461253.500000000, A.D. 2026-Aug-01 00:00:00.0000, 8.200753081145278E+07, 2.704659844172980E+08, 1.033213421238366E+07,
2461260.500000000, A.D. 2026-Aug-08 00:00:00.0000, 6.860627488501024E+07, 2.745216346758072E+08, 1.127527542450185E+07,
2461267.500000000, A.D. 2026-Aug-15 00:00:00.0000, 5.505833703327932E+07, 2.779906596755508E+08, 1.219432190750751E+07,
2461274.500000000, A.D. 2026-Aug-22 00:00:00.0000, 4.139323674446373E+07, 2.808685529461540E+08, 1.308743706776853E+07,
2461281.500000000, A.D. 2026-Aug-29 00:00:00.0000, 2.764053643719759E+07, 2.831526609994042E+08, 1.395288311114228E+07,
2461288.500000000, A.D. 2026-Sep-05 00:00:00.0000, 1.382969407925622E+07, 2.848421591084727E+08, 1.478902769637170E+07,
$$EOE